STARLINK-36675          
1 67663U 26022R   26060.07022295  .00086809  00000+0  57573-3 0  9991
2 67663  97.2820  93.6449 0002044  84.2125 275.9373 15.75238812  4197
STARLINK-36404          
1 67664U 26022S   26060.06704516  .00112351  00000+0  74274-3 0  9993
2 67664  97.2845  93.6493 0001584  99.3372 260.8073 15.75236659  4190
STARLINK-36399          
1 67665U 26022T   26060.12986523  .00179248  00000+0  11739-2 0  9995
2 67665  97.2861  93.7180 0001193  72.6704 287.4691 15.75261437  4207
STARLINK-36365          
1 67666U 26022U   26060.06492873  .00124025  00000+0  81836-3 0  9998
2 67666  97.2842  93.6527 0001968  99.9641 260.1846 15.75245871  4195
STARLINK-36622          
1 67667U 26022V   26060.06316001  .00140147  00000+0  92420-3 0  9991
2 67667  97.2842  93.6550 0001353 108.0209 252.1203 15.75213303  4195
STARLINK-36625          
1 67668U 26022W   26060.06175070  .00133519  00000+0  88124-3 0  9992
2 67668  97.2833  93.6564 0001743  89.2957 270.8508 15.75212580  4195
STARLINK-36639          
1 67669U 26022X   26060.05998448  .00116033  00000+0  76802-3 0  9996
2 67669  97.2842  93.6593 0001379  23.7350 336.3978 15.75197635  4195
STARLINK-36596          
1 67670U 26022Y   26060.05822038  .00137906  00000+0  90853-3 0  9993
2 67670  97.2833  93.6611 0001898 106.9614 253.1859 15.75241834  4196
STARLINK-36297          
1 67671U 26022Z   26060.05610293  .00122075  00000+0  80696-3 0  9997
2 67671  97.2827  93.6637 0001477 106.8879 253.2548 15.75210025  4197
STARLINK-36616          
1 67672U 26022AA  26060.05753429  .00228850  00000+0  14929-2 0  9990
2 67672  97.2839  93.6622 0001747  78.3053 281.8408 15.75212966  4190
COSMOS 2600             
1 67674U 26023A   26059.29522708  .00071571  00000+0  32746-3 0  9995
2 67674  96.6452 135.2352 0003248  47.0444 313.1099 15.83528492  3562
2026-023B               
1 67675U 26023B   26060.17818902  .00011708  00000+0  50129-3 0  9990
2 67675  96.6378 134.1125 0018983 160.7596 199.4364 15.22753243  3566
